[{"OBJECT_NAME":"HULIANWANG DIGUI-95","OBJECT_ID":"2025-231J","EPOCH":"2026-03-09T19:04:47.116992","MEAN_MOTION":13.29326178,"ECCENTRICITY":6.342e-5,"INCLINATION":50.0027,"RA_OF_ASC_NODE":171.8783,"ARG_OF_PERICENTER":206.4041,"MEAN_ANOMALY":153.6799,"EPHEMERIS_TYPE":0,"CLASSIFICATION_TYPE":"U","NORAD_CAT_ID":66003,"ELEMENT_SET_NO":999,"REV_AT_EPOCH":1967,"BSTAR":0.00013419199,"MEAN_MOTION_DOT":-6.2e-7,"MEAN_MOTION_DDOT":0},{"OBJECT_NAME":"CZ-4B DEB","OBJECT_ID":"1999-057AE","EPOCH":"2026-03-09T14:07:25.548960","MEAN_MOTION":13.8775544,"ECCENTRICITY":0.0298071,"INCLINATION":98.743,"RA_OF_ASC_NODE":316.5433,"ARG_OF_PERICENTER":50.8526,"MEAN_ANOMALY":348.9027,"EPHEMERIS_TYPE":0,"CLASSIFICATION_TYPE":"U","NORAD_CAT_ID":26142,"ELEMENT_SET_NO":999,"REV_AT_EPOCH":31060,"BSTAR":0.00048202,"MEAN_MOTION_DOT":7.75e-6,"MEAN_MOTION_DDOT":0}]
